IRIDIUM 116             
1 43072U 17083C   25337.23522493  .00000452  00000+0  15443-3 0  9995
2 43072  86.3975  43.9058 0002397 102.8787 257.2676 14.34220741416081
IRIDIUM 130             
1 43073U 17083D   25337.48258244  .00000454  00000+0  15497-3 0  9994
2 43073  86.3984  44.0587 0002140 105.2403 254.9029 14.34222330416069
IRIDIUM 151             
1 43074U 17083E   25337.24790624  .00000359  00000+0  12103-3 0  9997
2 43074  86.3982  43.9541 0002200  96.7404 263.4042 14.34218028416056
IRIDIUM 134             
1 43075U 17083F   25337.21619296  .00000667  00000+0  23112-3 0  9994
2 43075  86.3979  43.9725 0002081 102.4084 257.7344 14.34220396416011
IRIDIUM 137             
1 43076U 17083G   25337.43818623 -.00000043  00000+0 -22460-4 0  9990
2 43076  86.3977  43.9684 0002555  97.6893 262.4593 14.34217731416112
IRIDIUM 141             
1 43077U 17083H   25337.22253731  .00000152  00000+0  47192-4 0  9999
2 43077  86.3979  43.9006 0002027  95.0530 265.0897 14.34218181416089
IRIDIUM 153             
1 43078U 17083J   25337.17472795  .00000493  00000+0  16911-3 0  9999
2 43078  86.3980  12.4115 0001816  90.0596 270.0807 14.34217618417189
IRIDIUM 131             
1 43079U 17083K   25337.48892586  .00000069  00000+0  17561-4 0  9990
2 43079  86.3983  43.9622 0002077  94.1554 265.9879 14.34217788416059
